[
  {
    "OBJECT_NAME": "STARLINK-30498",
    "OBJECT_ID": "23151H",
    "EPOCH": "2025-11-11T05:49:28.430688",
    "MEAN_MOTION": 15.02534677,
    "ECCENTRICITY": 0.0001396,
    "INCLINATION": 43.0047,
    "RA_OF_ASC_NODE": 262.5968,
    "ARG_OF_PERICENTER": 261.1632,
    "MEAN_ANOMALY": 98.9053,
    "EPHEMERIS_TYPE": 0,
    "CLASSIFICATION_TYPE": "U",
    "NORAD_CAT_ID": 57971,
    "ELEMENT_SET_NO": 999,
    "REV_AT_EPOCH": 11791,
    "BSTAR": 8.133000000000001e-05,
    "MEAN_MOTION_DOT": 8.95e-06,
    "MEAN_MOTION_DDOT": 0.0,
    "TLE_LINE1": "1 57971U 23151H   25315.24269017  .00000895  00000+0  81330-4 0  9998",
    "TLE_LINE2": "2 57971  43.0047 262.5968 0001396 261.1632  98.9053 15.02534677117910",
    "COMMENT": "Grouped by shell and plane from TLE"
  },
  {
    "OBJECT_NAME": "STARLINK-30505",
    "OBJECT_ID": "23151J",
    "EPOCH": "2025-11-11T04:37:44.685120",
    "MEAN_MOTION": 15.02541905,
    "ECCENTRICITY": 6.56e-05,
    "INCLINATION": 43.0045,
    "RA_OF_ASC_NODE": 263.0798,
    "ARG_OF_PERICENTER": 267.4063,
    "MEAN_ANOMALY": 92.6705,
    "EPHEMERIS_TYPE": 0,
    "CLASSIFICATION_TYPE": "U",
    "NORAD_CAT_ID": 57972,
    "ELEMENT_SET_NO": 999,
    "REV_AT_EPOCH": 11790,
    "BSTAR": 0.0,
    "MEAN_MOTION_DOT": -2.887e-05,
    "MEAN_MOTION_DDOT": 0.0,
    "TLE_LINE1": "1 57972U 23151J   25315.19287830 -.00002887  00000+0 -19872-3 0  9992",
    "TLE_LINE2": "2 57972  43.0045 263.0798 0000656 267.4063  92.6705 15.02541905117907",
    "COMMENT": "Grouped by shell and plane from TLE"
  },
  {
    "OBJECT_NAME": "STARLINK-30502",
    "OBJECT_ID": "23151K",
    "EPOCH": "2025-11-11T05:55:51.578400",
    "MEAN_MOTION": 15.02540782,
    "ECCENTRICITY": 9.25e-05,
    "INCLINATION": 43.0041,
    "RA_OF_ASC_NODE": 262.6312,
    "ARG_OF_PERICENTER": 271.6601,
    "MEAN_ANOMALY": 88.4135,
    "EPHEMERIS_TYPE": 0,
    "CLASSIFICATION_TYPE": "U",
    "NORAD_CAT_ID": 57973,
    "ELEMENT_SET_NO": 999,
    "REV_AT_EPOCH": 11791,
    "BSTAR": 0.00018615000000000003,
    "MEAN_MOTION_DOT": 2.312e-05,
    "MEAN_MOTION_DDOT": 0.0,
    "TLE_LINE1": "1 57973U 23151K   25315.24712475  .00002312  00000+0  18615-3 0  9992",
    "TLE_LINE2": "2 57973  43.0041 262.6312 0000925 271.6601  88.4135 15.02540782117918",
    "COMMENT": "Grouped by shell and plane from TLE"
  },
  {
    "OBJECT_NAME": "STARLINK-30489",
    "OBJECT_ID": "23151L",
    "EPOCH": "2025-11-11T06:32:27.324672",
    "MEAN_MOTION": 15.02544182,
    "ECCENTRICITY": 0.0001285,
    "INCLINATION": 43.0034,
    "RA_OF_ASC_NODE": 261.9683,
    "ARG_OF_PERICENTER": 264.5015,
    "MEAN_ANOMALY": 95.5681,
    "EPHEMERIS_TYPE": 0,
    "CLASSIFICATION_TYPE": "U",
    "NORAD_CAT_ID": 57974,
    "ELEMENT_SET_NO": 999,
    "REV_AT_EPOCH": 11792,
    "BSTAR": 0.00027246999999999997,
    "MEAN_MOTION_DOT": 3.48e-05,
    "MEAN_MOTION_DDOT": 0.0,
    "TLE_LINE1": "1 57974U 23151L   25315.27253848  .00003480  00000+0  27247-3 0  9998",
    "TLE_LINE2": "2 57974  43.0034 261.9683 0001285 264.5015  95.5681 15.02544182117928",
    "COMMENT": "Grouped by shell and plane from TLE"
  },
  {
    "OBJECT_NAME": "STARLINK-30503",
    "OBJECT_ID": "23151M",
    "EPOCH": "2025-11-11T06:07:03.046368",
    "MEAN_MOTION": 15.02534697,
    "ECCENTRICITY": 0.0001122,
    "INCLINATION": 43.0049,
    "RA_OF_ASC_NODE": 262.6672,
    "ARG_OF_PERICENTER": 259.1571,
    "MEAN_ANOMALY": 100.9145,
    "EPHEMERIS_TYPE": 0,
    "CLASSIFICATION_TYPE": "U",
    "NORAD_CAT_ID": 57975,
    "ELEMENT_SET_NO": 999,
    "REV_AT_EPOCH": 11791,
    "BSTAR": 0.00012631,
    "MEAN_MOTION_DOT": 1.503e-05,
    "MEAN_MOTION_DDOT": 0.0,
    "TLE_LINE1": "1 57975U 23151M   25315.25489637  .00001503  00000+0  12631-3 0  9999",
    "TLE_LINE2": "2 57975  43.0049 262.6672 0001122 259.1571 100.9145 15.02534697117913",
    "COMMENT": "Grouped by shell and plane from TLE"
  },
  {
    "OBJECT_NAME": "STARLINK-30512",
    "OBJECT_ID": "23151N",
    "EPOCH": "2025-11-11T05:22:17.268672",
    "MEAN_MOTION": 15.02552245,
    "ECCENTRICITY": 0.0001372,
    "INCLINATION": 43.0029,
    "RA_OF_ASC_NODE": 262.4026,
    "ARG_OF_PERICENTER": 277.5544,
    "MEAN_ANOMALY": 82.5142,
    "EPHEMERIS_TYPE": 0,
    "CLASSIFICATION_TYPE": "U",
    "NORAD_CAT_ID": 57976,
    "ELEMENT_SET_NO": 999,
    "REV_AT_EPOCH": 11791,
    "BSTAR": 0.00025622,
    "MEAN_MOTION_DOT": 3.26e-05,
    "MEAN_MOTION_DDOT": 0.0,
    "TLE_LINE1": "1 57976U 23151N   25315.22381098  .00003260  00000+0  25622-3 0  9995",
    "TLE_LINE2": "2 57976  43.0029 262.4026 0001372 277.5544  82.5142 15.02552245117915",
    "COMMENT": "Grouped by shell and plane from TLE"
  },
  {
    "OBJECT_NAME": "STARLINK-30842",
    "OBJECT_ID": "23177G",
    "EPOCH": "2025-11-11T05:07:34.432608",
    "MEAN_MOTION": 15.02545655,
    "ECCENTRICITY": 0.0001149,
    "INCLINATION": 43.0048,
    "RA_OF_ASC_NODE": 261.5691,
    "ARG_OF_PERICENTER": 271.4114,
    "MEAN_ANOMALY": 88.6597,
    "EPHEMERIS_TYPE": 0,
    "CLASSIFICATION_TYPE": "U",
    "NORAD_CAT_ID": 58357,
    "ELEMENT_SET_NO": 999,
    "REV_AT_EPOCH": 11055,
    "BSTAR": 0.0,
    "MEAN_MOTION_DOT": -1.837e-05,
    "MEAN_MOTION_DDOT": 0.0,
    "TLE_LINE1": "1 58357U 23177G   25315.21359297 -.00001837  00000+0 -12090-3 0  9997",
    "TLE_LINE2": "2 58357  43.0048 261.5691 0001149 271.4114  88.6597 15.02545655110557",
    "COMMENT": "Grouped by shell and plane from TLE"
  }
]